CCSDS_OMM_VERS,COMMENT,CREATION_DATE,ORIGINATOR,OBJECT_NAME,OBJECT_ID,CENTER_NAME,REF_FRAME,TIME_SYSTEM,MEAN_ELEMENT_THEORY,EPOCH,MEAN_MOTION,ECCENTRICITY,INCLINATION,RA_OF_ASC_NODE,ARG_OF_PERICENTER,MEAN_ANOMALY,EPHEMERIS_TYPE,CLASSIFICATION_TYPE,NORAD_CAT_ID,ELEMENT_SET_NO,REV_AT_EPOCH,BSTAR,MEAN_MOTION_DOT,MEAN_MOTION_DDOT,SEMIMAJOR_AXIS,PERIOD,APOAPSIS,PERIAPSIS,OBJECT_TYPE,RCS_SIZE,COUNTRY_CODE,LAUNCH_DATE,SITE,DECAY_DATE,FILE,GP_ID,TLE_LINE0,TLE_LINE1,TLE_LINE2,,,,,,,AVG_ALTITUDE,,AVG_VELOCITY
2,GENERATED VIA SPACE-TRACK.ORG API,2022-06-03T06:56:14,18 SPCS,ZHUHAI-1 OHS-02,2018-040C,EARTH,TEME,UTC,SGP4,2022-06-03T03:24:37.872864,15.2146695,0.0014409,97.2566,215.9772,113.4336,298.8483,0,U,43441,999,22754,0.00027267,6.08E-05,0,6879.552,94.645,511.33,491.504,PAYLOAD,MEDIUM,PRC,4/26/2018,JSC,,3478270,205221364,0 ZHUHAI-1 OHS-02,1 43441U 18040C   22154.14210501  .00006079  00000-0  27267-3 0  9996,2 43441  97.2566 215.9772 0014409 113.4336 298.8483 15.21466950227546,,,,,,,509.552,,7.6118258
2,GENERATED VIA SPACE-TRACK.ORG API,2022-06-03T07:16:12,18 SPCS,ZHUHAI-1 OHS-03,2018-040D,EARTH,TEME,UTC,SGP4,2022-06-03T03:42:29.910240,15.22306295,0.0007213,97.2392,213.573,113.9788,298.5015,0,U,43442,999,22756,0.00021336,4.85E-05,0,6877.023,94.593,503.848,493.928,PAYLOAD,MEDIUM,PRC,4/26/2018,JSC,,3478481,205227100,0 ZHUHAI-1 OHS-03,1 43442U 18040D   22154.15451285  .00004851  00000-0  21336-3 0  9991,2 43442  97.2392 213.5730 0007213 113.9788 298.5015 15.22306295227569,,,,,,,507.023,,7.613225282
2,GENERATED VIA SPACE-TRACK.ORG API,2022-06-03T06:56:14,18 SPCS,ZHUHAI-1 OHS-04,2018-040E,EARTH,TEME,UTC,SGP4,2022-06-03T03:04:58.347840,15.21620426,0.0008182,97.2472,214.3551,85.442,358.3829,0,U,43443,999,22754,0.00026164,5.85E-05,0,6879.089,94.636,506.583,495.326,PAYLOAD,MEDIUM,PRC,4/26/2018,JSC,,3478301,205221633,0 ZHUHAI-1 OHS-04,1 43443U 18040E   22154.12845310  .00005846  00000-0  26164-3 0  9994,2 43443  97.2472 214.3551 0008182  85.4420 358.3829 15.21620426227541,,,,,,,509.089,,7.612081955
2,GENERATED VIA SPACE-TRACK.ORG API,2022-06-03T02:31:39,18 SPCS,GAOFEN-5,2018-043A,EARTH,TEME,UTC,SGP4,2022-06-02T20:57:05.160960,14.57974819,0.0001927,98.2698,94.4838,20.8618,339.2659,0,U,43461,999,21653,4.87E-05,1.77E-06,0,7077.858,98.767,701.087,698.359,PAYLOAD,LARGE,PRC,5/8/2018,TSC,,3477983,205207633,0 GAOFEN-5,1 43461U 18043A   22153.87297640  .00000177  00000-0  48683-4 0  9998,2 43461  98.2698  94.4838 0001927  20.8618 339.2659 14.57974819216531,,,,,,,707.858,,7.504434941
2,GENERATED VIA SPACE-TRACK.ORG API,2022-06-03T02:31:39,18 SPCS,GRACE-FO 1,2018-047A,EARTH,TEME,UTC,SGP4,2022-06-02T21:24:10.948032,15.24904329,0.001907,88.9892,40.465,52.9116,307.3872,0,U,43476,999,22419,5.57E-05,1.42E-05,0,6869.21,94.432,504.174,477.975,PAYLOAD,MEDIUM,US,5/22/2018,AFWTR,,3477983,205208383,0 GRACE-FO 1,1 43476U 18047A   22153.89179338  .00001424  00000-0  55748-4 0  9999,2 43476  88.9892  40.4650 0019070  52.9116 307.3872 15.24904329224197,,,,,,,499.21,,7.617553671
2,GENERATED VIA SPACE-TRACK.ORG API,2022-06-03T02:31:39,18 SPCS,GRACE-FO 2,2018-047B,EARTH,TEME,UTC,SGP4,2022-06-02T21:24:36.479232,15.24904226,0.0019059,88.9892,40.468,52.9295,307.3692,0,U,43477,999,22419,5.44E-05,1.39E-05,0,6869.21,94.432,504.167,477.983,PAYLOAD,MEDIUM,US,5/22/2018,AFWTR,,3477983,205206632,0 GRACE-FO 2,1 43477U 18047B   22153.89208888  .00001391  00000-0  54409-4 0  9999,2 43477  88.9892  40.4680 0019059  52.9295 307.3692 15.24904226224192,,,,,,,499.21,,7.617553671
2,GENERATED VIA SPACE-TRACK.ORG API,2022-06-02T17:55:29,18 SPCS,IRIDIUM 161,2018-047C,EARTH,TEME,UTC,SGP4,2022-06-02T12:45:10.727424,14.43287171,0.0002419,86.4484,345.1704,96.8763,263.2713,0,U,43478,999,21229,4.51E-05,1.72E-06,0,7125.795,99.772,749.384,745.937,PAYLOAD,LARGE,US,5/22/2018,AFWTR,,3477482,205172051,0 IRIDIUM 161,1 43478U 18047C   22153.53137416  .00000172  00000-0  45056-4 0  9993,2 43478  86.4484 345.1704 0002419  96.8763 263.2713 14.43287171212299,,,,,,,755.795,,7.479150243
2,GENERATED VIA SPACE-TRACK.ORG API,2022-06-03T06:36:13,18 SPCS,IRIDIUM 152,2018-047D,EARTH,TEME,UTC,SGP4,2022-06-03T01:20:22.210368,14.34219805,0.0002114,86.3959,344.8161,81.8763,278.2672,0,U,43479,999,21106,4.17E-05,1.37E-06,0,7155.797,100.403,779.175,776.15,PAYLOAD,LARGE,US,5/22/2018,AFWTR,,3478135,205217852,0 IRIDIUM 152,1 43479U 18047D   22154.05581262  .00000137  00000-0  41747-4 0  9998,2 43479  86.3959 344.8161 0002114  81.8763 278.2672 14.34219805211068,,,,,,,785.797,,7.463454915
2,GENERATED VIA SPACE-TRACK.ORG API,2022-06-03T02:31:39,18 SPCS,IRIDIUM 147,2018-047E,EARTH,TEME,UTC,SGP4,2022-06-02T18:47:38.851584,14.34214624,0.0001971,86.396,344.9097,92.0167,268.1254,0,U,43480,999,21101,4.25E-05,1.39E-06,0,7155.815,100.403,779.09,776.269,PAYLOAD,LARGE,US,5/22/2018,AFWTR,,3477983,205207883,0 IRIDIUM 147,1 43480U 18047E   22153.78308856  .00000139  00000-0  42472-4 0  9993,2 43480  86.3960 344.9097 0001971  92.0167 268.1254 14.34214624211016,,,,,,,785.815,,7.463445528
2,GENERATED VIA SPACE-TRACK.ORG API,2022-06-03T02:31:39,18 SPCS,IRIDIUM 110,2018-047F,EARTH,TEME,UTC,SGP4,2022-06-02T18:56:47.165856,14.34214926,0.0002451,86.3963,344.96,91.8432,268.3045,0,U,43481,999,21100,4.25E-05,1.39E-06,0,7155.814,100.403,779.432,775.925,PAYLOAD,LARGE,US,5/22/2018,AFWTR,,3477983,205207133,0 IRIDIUM 110,1 43481U 18047F   22153.78943479  .00000139  00000-0  42479-4 0  9997,2 43481  86.3963 344.9600 0002451  91.8432 268.3045 14.34214926211000,,,,,,,785.814,,7.46344605
2,GENERATED VIA SPACE-TRACK.ORG API,2022-06-03T02:31:39,18 SPCS,IRIDIUM 162,2018-047G,EARTH,TEME,UTC,SGP4,2022-06-02T19:15:27.994176,14.4328791,0.0002347,86.4482,344.9675,88.167,271.9799,0,U,43482,999,21232,4.61E-05,1.75E-06,0,7125.793,99.772,749.33,745.985,PAYLOAD,LARGE,US,5/22/2018,AFWTR,,3477983,205207383,0 IRIDIUM 162,1 43482U 18047G   22153.80240734  .00000175  00000-0  46129-4 0  9991,2 43482  86.4482 344.9675 0002347  88.1670 271.9799 14.43287910212322,,,,,,,755.793,,7.479151293
2,GENERATED VIA SPACE-TRACK.ORG API,2022-06-03T06:26:12,18 SPCS,GAOFEN 6,2018-048A,EARTH,TEME,UTC,SGP4,2022-06-03T01:39:20.954592,14.76512967,0.0007791,97.9287,234.6361,249.1627,110.8744,0,U,43484,999,21571,8.65E-05,5.52E-06,0,7018.49,97.527,645.823,634.887,PAYLOAD,LARGE,PRC,6/2/2018,JSC,,3478071,205215773,0 GAOFEN 6,1 43484U 18048A   22154.06899253  .00000552  00000-0  86491-4 0  9994,2 43484  97.9287 234.6361 0007791 249.1627 110.8744 14.76512967215716,,,,,,,648.49,,7.53610736
2,GENERATED VIA SPACE-TRACK.ORG API,2022-06-03T07:06:16,18 SPCS,LUOJIA-1 01,2018-048B,EARTH,TEME,UTC,SGP4,2022-06-03T04:26:59.659872,14.77329157,0.0010029,97.9334,235.6706,243.0821,116.9357,0,U,43485,999,21576,0.00015994,1.09E-05,0,7015.904,97.473,644.806,630.733,PAYLOAD,MEDIUM,PRC,6/2/2018,JSC,,3478376,205223721,0 LUOJIA-1 01,1 43485U 18048B   22154.18541273  .00001085  00000-0  15994-3 0  9995,2 43485  97.9334 235.6706 0010029 243.0821 116.9357 14.77329157215761,,,,,,,645.904,,7.537496103
2,GENERATED VIA SPACE-TRACK.ORG API,2022-06-03T07:16:12,18 SPCS,XJS A,2018-054A,EARTH,TEME,UTC,SGP4,2022-06-03T03:33:57.934944,15.3581633,0.000697,35.0421,179.4696,255.5729,104.4217,0,U,43518,999,22015,0.00026346,9.41E-05,0,6836.634,93.761,463.264,453.734,PAYLOAD,LARGE,PRC,6/27/2018,XSC,,3478483,205226728,0 XJS A,1 43518U 18054A   22154.14858721  .00009406  00000-0  26346-3 0  9992,2 43518  35.0421 179.4696 0006970 255.5729 104.4217 15.35816330220151,,,,,,,466.634,,7.635680613
2,GENERATED VIA SPACE-TRACK.ORG API,2022-06-03T07:06:16,18 SPCS,XJS B,2018-054B,EARTH,TEME,UTC,SGP4,2022-06-03T04:49:21.863136,15.36280416,0.0008603,35.0407,178.8426,83.82,276.35,0,U,43519,999,22016,0.00026492,9.61E-05,0,6835.257,93.733,463.002,451.242,PAYLOAD,LARGE,PRC,6/27/2018,XSC,,3478408,205224700,0 XJS B,1 43519U 18054B   22154.20094749  .00009605  00000-0  26492-3 0  9995,2 43519  35.0407 178.8426 0008603  83.8200 276.3500 15.36280416220167,,,,,,,465.257,,7.636449699
2,GENERATED VIA SPACE-TRACK.ORG API,2022-06-03T06:36:13,18 SPCS,PAKTES 1A,2018-056A,EARTH,TEME,UTC,SGP4,2022-06-03T06:00:16.041024,14.88091542,0.0025232,97.9844,257.0922,300.0202,59.8527,0,U,43529,999,21183,0.00011821,1.04E-05,0,6982.036,96.768,621.518,586.284,PAYLOAD,LARGE,PAKI,7/9/2018,JSC,,3478166,205218908,0 PAKTES 1A,1 43529U 18056A   22154.25018566  .00001035  00000-0  11821-3 0  9995,2 43529  97.9844 257.0922 0025232 300.0202  59.8527 14.88091542211837,,,,,,,612.036,,7.555755182
2,GENERATED VIA SPACE-TRACK.ORG API,2022-06-03T06:56:14,18 SPCS,PRSS 1,2018-056B,EARTH,TEME,UTC,SGP4,2022-06-03T04:01:04.481472,14.77196508,0.0001561,97.9322,232.9545,95.7359,264.4029,0,U,43530,999,21034,8.89E-05,5.79E-06,0,7016.324,97.482,639.285,637.094,PAYLOAD,LARGE,PAKI,7/9/2018,JSC,,3478286,205221613,0 PRSS 1,1 43530U 18056B   22154.16741298  .00000579  00000-0  88922-4 0  9991,2 43530  97.9322 232.9545 0001561  95.7359 264.4029 14.77196508210345,,,,,,,646.324,,7.537270501
2,GENERATED VIA SPACE-TRACK.ORG API,2022-06-02T17:55:29,18 SPCS,AEROCUBE 12A,2018-046C,EARTH,TEME,UTC,SGP4,2022-06-02T13:37:22.342080,15.38799766,0.0007797,51.6368,256.403,340.181,19.887,0,U,43556,999,21702,0.00032569,0.00012328,0,6827.794,93.579,454.983,444.336,PAYLOAD,MEDIUM,US,5/21/2018,WLPIS,,3477482,205172808,0 AEROCUBE 12A,1 43556U 18046C   22153.56761970  .00012328  00000-0  32569-3 0  9990,2 43556  51.6368 256.4030 0007797 340.1810  19.8870 15.38799766217027,,,,,,,457.794,,7.640622002
2,GENERATED VIA SPACE-TRACK.ORG API,2022-06-02T17:55:29,18 SPCS,AEROCUBE 12B,2018-046D,EARTH,TEME,UTC,SGP4,2022-06-02T11:40:42.259872,15.37004531,0.0007723,51.6389,261.0453,338.4462,21.6196,0,U,43557,999,21690,0.00024043,8.47E-05,0,6833.11,93.689,460.252,449.698,PAYLOAD,MEDIUM,US,5/21/2018,WLPIS,,3477482,205173058,0 AEROCUBE 12B,1 43557U 18046D   22153.48660023  .00008466  00000-0  24043-3 0  9995,2 43557  51.6389 261.0453 0007723 338.4462  21.6196 15.37004531216900,,,,,,,463.11,,7.637649311
